0 COSMOS 2251 DEB
1 35994U 93036AWL 13282.47977679  .00246066  00000-0  11660-1 0  3952
2 35994 074.0209 337.2319 0034730 078.8624 281.6473 15.17612702221327
0 COSMOS 2251 DEB
1 35994U 93036AWL 13283.13894233  .00194538  00000-0  92221-2 0  3960
2 35994 074.0212 335.8553 0034445 077.4185 283.0860 15.17843180221428
0 COSMOS 2251 DEB
1 35994U 93036AWL 13285.77474074  .00164571  00000-0  76705-2 0  3984
2 35994 074.0200 330.3382 0033989 069.9302 290.5547 15.18581305221822
0 COSMOS 2251 DEB
1 35994U 93036AWL 13286.49935765  .00150230  00000-0  69739-2 0  3990
2 35994 074.0220 328.8257 0034200 068.1977 292.2853 15.18780094221930
0 COSMOS 2251 DEB
1 35994U 93036AWL 13287.75073861  .00234013  00000-0  10669-1 0  4002
2 35994 074.0261 326.2093 0030066 050.6055 309.7797 15.19136261222129
0 COSMOS 2251 DEB
1 35994U 93036AWL 13289.06752055  .00223600  00000-0  99886-2 0  4017
2 35994 074.0193 323.4426 0034209 063.4017 297.0679 15.19770509222324
0 COSMOS 2251 DEB
1 35994U 93036AWL 13290.44966023  .00255834  00000-0  11229-1 0  4044
2 35994 074.0180 320.5405 0033924 060.4382 300.0190 15.20238629222530
0 COSMOS 2251 DEB
1 35994U 93036AWL 13290.77867530  .00207106  00000-0  91015-2 0  4055
2 35994 074.0188 319.8521 0033736 059.2140 301.2371 15.20420764222589
0 COSMOS 2251 DEB
1 35994U 93036AWL 13290.77870492  .00156475  00000-0  70456-2 0  4021
2 35994 074.0272 319.8634 0037975 055.3231 305.2055 15.20326072 54678
0 COSMOS 2251 DEB
1 35994U 93036AWL 13292.48908996  .00218439  00000-0  94131-2 0  4061
2 35994 074.0191 316.2581 0033487 055.6748 304.7611 15.21047853222846
0 COSMOS 2251 DEB
1 35994U 93036AWL 13293.47553895  .00233303  00000-0  99275-2 0  4077
2 35994 074.0192 314.1837 0033235 053.7918 306.6345 15.21419343222995
0 COSMOS 2251 DEB
1 35994U 93036AWL 13294.46174200  .00254457  00000-0  10687-1 0  4089
2 35994 074.0192 312.1096 0032807 051.8849 308.5299 15.21782446223140
0 COSMOS 2251 DEB
1 35994U 93036AWL 13295.38197378  .00290306  00000-0  11997-1 0  4091
2 35994 074.0192 310.1722 0032402 050.5185 309.8871 15.22184184223285
